NORAD_CAT_ID,OBJECT_NAME,OBJECT_TYPE,EPOCH,MEAN_MOTION,ECCENTRICITY,INCLINATION,RA_OF_ASC_NODE,ARG_OF_PERICENTER,MEAN_ANOMALY,BSTAR,MEAN_MOTION_DOT,MEAN_MOTION_DDOT,TLE_LINE0,TLE_LINE1,TLE_LINE2,SEMIMAJOR_AXIS,PERIOD,APOGEE,PERIGEE,DECAYED
55284.0,STARLINK-5337,PAYLOAD,2023-10-05 21:00:08,14.98325814,0.0002832,69.9988,117.7406,267.2091,92.8744,2.4561e-05,2e-06,0.0,0 STARLINK-5337,1 55284U 23010R   23278.87509492  .00000200  00000-0  24561-4 0  9990,2 55284  69.9988 117.7406 0002832 267.2091  92.8744 14.98325814 40095,6950.206,96.107,574.039,570.103,0.0
55284.0,STARLINK-5337,PAYLOAD,2023-10-06 00:12:24,14.98313059,0.0002842,69.9985,117.4036,266.2897,93.7937,0.00025354,2.932e-05,0.0,0 STARLINK-5337,1 55284U 23010R   23279.00861837  .00002932  00000-0  25354-3 0  9994,2 55284  69.9985 117.4036 0002842 266.2897  93.7937 14.98313059 39812,6950.245,96.108,574.086,570.135,0.0
55284.0,STARLINK-5337,PAYLOAD,2023-10-06 13:01:28,14.98328987,0.0002854,69.9988,116.0576,270.3845,89.6987,-5.5353e-05,-7.53e-06,0.0,0 STARLINK-5337,1 55284U 23010R   23279.54269605 -.00000753  00000-0 -55353-4 0  9992,2 55284  69.9988 116.0576 0002854 270.3845  89.6987 14.98328987 40199,6950.196,96.107,574.045,570.077,0.0
55284.0,STARLINK-5337,PAYLOAD,2023-10-06 19:26:01,14.9833057,0.000288,69.9986,115.3841,268.8481,91.2348,-5.3861e-05,-7.36e-06,0.0,0 STARLINK-5337,1 55284U 23010R   23279.80973491 -.00000736  00000-0 -53861-4 0  9999,2 55284  69.9986 115.3841 0002880 268.8481  91.2348 14.98330570 39932,6950.191,96.107,574.058,570.054,0.0
55284.0,STARLINK-5337,PAYLOAD,2023-10-06 21:02:09,14.98328502,0.000283,69.9986,115.2154,269.1682,90.9153,-6.1482e-05,-8.26e-06,0.0,0 STARLINK-5337,1 55284U 23010R   23279.87649648 -.00000826  00000-0 -61482-4 0  9998,2 55284  69.9986 115.2154 0002830 269.1682  90.9153 14.98328502 40248,6950.198,96.107,574.029,570.096,0.0
55284.0,STARLINK-5337,PAYLOAD,2023-10-07 13:03:29,14.98329651,0.0002992,69.9981,113.5317,270.5052,89.5764,9.017e-05,9.83e-06,0.0,0 STARLINK-5337,1 55284U 23010R   23280.54409165  .00000983  00000-0  90170-4 0  9990,2 55284  69.9981 113.5317 0002992 270.5052  89.5764 14.98329651 40340,6950.194,96.107,574.138,569.979,0.0
55284.0,STARLINK-5337,PAYLOAD,2023-10-07 19:28:01,14.98332107,0.0003023,69.9982,112.8581,270.3677,89.7136,8.6228e-05,9.36e-06,0.0,0 STARLINK-5337,1 55284U 23010R   23280.81113029  .00000936  00000-0  86228-4 0  9998,2 55284  69.9982 112.8581 0003023 270.3677  89.7136 14.98332107 40089,6950.186,96.107,574.152,569.95,0.0
55284.0,STARLINK-5337,PAYLOAD,2023-10-07 21:04:09,14.98332042,0.0003028,69.9981,112.6897,270.332,89.7493,8.4115e-05,9.11e-06,0.0,0 STARLINK-5337,1 55284U 23010R   23280.87789036  .00000911  00000-0  84115-4 0  9997,2 55284  69.9981 112.6897 0003028 270.3320  89.7493 14.98332042 40394,6950.187,96.107,574.156,569.947,0.0
55284.0,STARLINK-5337,PAYLOAD,2023-10-08 13:05:30,14.98330458,0.0003086,69.9981,111.0066,270.9818,89.0987,6.5887e-05,6.93e-06,0.0,0 STARLINK-5337,1 55284U 23010R   23281.54549168  .00000693  00000-0  65887-4 0  9994,2 55284  69.9981 111.0066 0003086 270.9818  89.0987 14.98330458 40498,6950.191,96.107,574.201,569.912,0.0
55284.0,STARLINK-5337,PAYLOAD,2023-10-08 19:30:02,14.98332041,0.0003107,69.9981,110.3336,271.5743,88.506,7.8493e-05,8.44e-06,0.0,0 STARLINK-5337,1 55284U 23010R   23281.81253028  .00000844  00000-0  78493-4 0  9996,2 55284  69.9981 110.3336 0003107 271.5743  88.5060 14.98332041 40236,6950.187,96.107,574.211,569.892,0.0
55284.0,STARLINK-5337,PAYLOAD,2023-10-08 21:06:10,14.98332598,0.0003097,69.9981,110.1652,271.5424,88.538,8.3281e-05,9.01e-06,0.0,0 STARLINK-5337,1 55284U 23010R   23281.87928968  .00000901  00000-0  83281-4 0  9999,2 55284  69.9981 110.1652 0003097 271.5424  88.5380 14.98332598 40545,6950.185,96.107,574.202,569.897,0.0
55284.0,STARLINK-5337,PAYLOAD,2023-10-09 13:07:31,14.98333888,0.0003053,69.9983,108.4818,271.7778,88.3032,-4.8372e-06,-1.51e-06,0.0,0 STARLINK-5337,1 55284U 23010R   23282.54689033 -.00000151  00000-0 -48372-5 0  9993,2 55284  69.9983 108.4818 0003053 271.7778  88.3032 14.98333888 40643,6950.181,96.107,574.168,569.924,0.0
55284.0,STARLINK-5337,PAYLOAD,2023-10-09 17:55:55,14.98319051,0.0002918,69.9982,107.9768,273.8039,86.2786,0.00025655,2.969e-05,0.0,0 STARLINK-5337,1 55284U 23010R   23282.74717236  .00002969  00000-0  25655-3 0  9996,2 55284  69.9982 107.9768 0002918 273.8039  86.2786 14.98319051 40371,6950.227,96.108,574.12,570.064,0.0
55284.0,STARLINK-5337,PAYLOAD,2023-10-09 21:08:11,14.98335514,0.0003045,69.9981,107.6401,271.7775,88.3035,1.4074e-05,7.5e-07,0.0,0 STARLINK-5337,1 55284U 23010R   23282.88068781  .00000075  00000-0  14074-4 0  9995,2 55284  69.9981 107.6401 0003045 271.7775  88.3035 14.98335514 40694,6950.176,96.107,574.157,569.925,0.0
55284.0,STARLINK-5337,PAYLOAD,2023-10-09 22:44:19,14.98336013,0.0003045,69.9981,107.4717,271.8609,88.2201,1.9294e-05,1.37e-06,0.0,0 STARLINK-5337,1 55284U 23010R   23282.94744710  .00000137  00000-0  19294-4 0  9993,2 55284  69.9981 107.4717 0003045 271.8609  88.2201 14.98336013 40407,6950.174,96.107,574.156,569.923,0.0
55284.0,STARLINK-5337,PAYLOAD,2023-10-10 13:09:32,14.98332182,0.0002964,69.9982,105.9566,272.9529,87.1291,1.0859e-05,3.7e-07,0.0,0 STARLINK-5337,1 55284U 23010R   23283.54828879  .00000037  00000-0  10859-4 0  9996,2 55284  69.9982 105.9566 0002964 272.9529  87.1291 14.98332182 40797,6950.186,96.107,574.111,569.991,0.0
55284.0,STARLINK-5337,PAYLOAD,2023-10-10 21:10:12,14.98347142,0.0003032,69.9984,105.1151,271.9543,88.1269,-0.00024984,-3.074e-05,0.0,0 STARLINK-5337,1 55284U 23010R   23283.88208458 -.00003074  00000-0 -24984-3 0  9997,2 55284  69.9984 105.1151 0003032 271.9543  88.1269 14.98347142 40847,6950.14,96.106,574.112,569.898,0.0
55284.0,STARLINK-5337,PAYLOAD,2023-10-11 05:10:52,14.9833962,0.0002994,69.9984,104.2731,272.5146,87.567,-0.0001291,-1.633e-05,0.0,0 STARLINK-5337,1 55284U 23010R   23284.21588584 -.00001633  00000-0 -12910-3 0  9991,2 55284  69.9984 104.2731 0002994 272.5146  87.5670 14.98339620 40596,6950.163,96.106,574.109,569.947,0.0
55284.0,STARLINK-5337,PAYLOAD,2023-10-11 13:11:33,14.9833112,0.0002921,69.9984,103.4315,270.7716,89.3108,5.5905e-06,-2.6e-07,0.0,0 STARLINK-5337,1 55284U 23010R   23284.54968838 -.00000026  00000-0  55905-5 0  9998,2 55284  69.9984 103.4315 0002921 270.7716  89.3108 14.98331120 40940,6950.189,96.107,574.085,570.024,0.0
55284.0,STARLINK-5337,PAYLOAD,2023-10-11 21:12:13,14.98330066,0.0002952,69.9986,102.5899,270.9144,89.1676,-7.3395e-06,-1.81e-06,0.0,0 STARLINK-5337,1 55284U 23010R   23284.88348921 -.00000181  00000-0 -73395-5 0  9996,2 55284  69.9986 102.5899 0002952 270.9144  89.1676 14.98330066 40698,6950.193,96.107,574.109,570.006,0.0
55284.0,STARLINK-5337,PAYLOAD,2023-10-12 13:13:34,14.9832984,0.0002994,69.9988,100.9068,269.6052,90.4764,1.5047e-05,8.7e-07,0.0,0 STARLINK-5337,1 55284U 23010R   23285.55108878  .00000087  00000-0  15047-4 0  9998,2 55284  69.9988 100.9068 0002994 269.6052  90.4764 14.98329840 41095,6950.193,96.107,574.139,569.977,0.0
55284.0,STARLINK-5337,PAYLOAD,2023-10-12 21:14:14,14.98329987,0.0003013,69.9988,100.0651,269.8295,90.2519,1.4572e-05,8.1e-07,0.0,0 STARLINK-5337,1 55284U 23010R   23285.88488872  .00000081  00000-0  14572-4 0  9995,2 55284  69.9988 100.0651 0003013 269.8295  90.2519 14.98329987 41142,6950.193,96.107,574.152,569.964,0.0
55284.0,STARLINK-5337,PAYLOAD,2023-10-13 14:51:42,14.98330916,0.0003063,69.9988,98.213,270.1234,89.9574,6.2996e-05,6.59e-06,0.0,0 STARLINK-5337,1 55284U 23010R   23286.61924660  .00000659  00000-0  62996-4 0  9991,2 55284  69.9988  98.2130 0003063 270.1234  89.9574 14.98330916 41257,6950.19,96.107,574.184,569.926,0.0
55284.0,STARLINK-5337,PAYLOAD,2023-10-13 21:16:14,14.98333788,0.0003082,69.9988,97.5397,270.0673,90.0133,7.2313e-05,7.7e-06,0.0,0 STARLINK-5337,1 55284U 23010R   23286.88628426  .00000770  00000-0  72313-4 0  9999,2 55284  69.9988  97.5397 0003082 270.0673  90.0133 14.98333788 41299,6950.181,96.107,574.188,569.904,0.0
55284.0,STARLINK-5337,PAYLOAD,2023-10-14 13:17:35,14.98329678,0.0003069,69.9988,95.8563,270.0104,90.0704,3.1879e-05,2.87e-06,0.0,0 STARLINK-5337,1 55284U 23010R   23287.55388716  .00000287  00000-0  31879-4 0  9994,2 55284  69.9988  95.8563 0003069 270.0104  90.0704 14.98329678 41397,6950.194,96.107,574.192,569.926,0.0
55284.0,STARLINK-5337,PAYLOAD,2023-10-14 21:18:16,14.98331719,0.0003069,69.9989,95.0146,269.7856,90.2951,4.5309e-05,4.48e-06,0.0,0 STARLINK-5337,1 55284U 23010R   23287.88768524  .00000448  00000-0  45309-4 0  9991,2 55284  69.9989  95.0146 0003069 269.7856  90.2951 14.98331719 41447,6950.188,96.107,574.186,569.92,0.0
55284.0,STARLINK-5337,PAYLOAD,2023-10-15 13:19:36,14.98332574,0.0003048,69.999,93.3312,269.7969,90.2841,1.0977e-05,3.8e-07,0.0,0 STARLINK-5337,1 55284U 23010R   23288.55528474  .00000038  00000-0  10977-4 0  9992,2 55284  69.9990  93.3312 0003048 269.7969  90.2841 14.98332574 41546,6950.185,96.107,574.168,569.932,0.0
55284.0,STARLINK-5337,PAYLOAD,2023-10-15 21:20:16,14.98333796,0.0003053,69.9991,92.4897,269.9517,90.1292,1.8203e-05,1.24e-06,0.0,0 STARLINK-5337,1 55284U 23010R   23288.88908297  .00000124  00000-0  18203-4 0  9999,2 55284  69.9991  92.4897 0003053 269.9517  90.1292 14.98333796 41593,6950.181,96.107,574.168,569.924,0.0
55284.0,STARLINK-5337,PAYLOAD,2023-10-16 03:44:49,14.98331755,0.0003036,69.9992,91.8163,270.1787,89.9024,-2.2579e-06,-1.2e-06,0.0,0 STARLINK-5337,1 55284U 23010R   23289.15612437 -.00000120  00000-0 -22579-5 0  9998,2 55284  69.9992  91.8163 0003036 270.1787  89.9024 14.98331755 41331,6950.187,96.107,574.163,569.942,0.0
55284.0,STARLINK-5337,PAYLOAD,2023-10-16 14:57:45,14.98329176,0.0003048,69.9991,90.6381,269.6338,90.4472,-2.2399e-06,-1.2e-06,0.0,0 STARLINK-5337,1 55284U 23010R   23289.62344572 -.00000120  00000-0 -22399-5 0  9992,2 55284  69.9991  90.6381 0003048 269.6338  90.4472 14.98329176 41706,6950.195,96.107,574.179,569.942,0.0
